"PlaceID","PlaceName","Root","Comment","Lat","Lon","PlaceMarkID"
"1","Abana","","Now Barada River","33.54","36.22","469"
"10","Abel-shittim","","","31.85","35.64","245"
"100","Ashan","Ashnah","","31.8","34.93","213"
"1000","Rhodes","","","36.44","28.22","517"
"1001","Riblah","","","34.43","36.54","485"
"1002","Riblah","Ain 1","","34.35","36.38","484"
"1003","Rimmon","","","31.93","35.29","272"
"1004","Rimmon","Ain 1","","34.35","36.38","484"
"1005","Rimmon","Dimnah","","32.78","35.32","405"
"1006","Rimmono","Dimnah","","32.78","35.32","405"
"1007","Rimmon-perez","Ashnah","","31.8","34.93","213"
"1008","Rissah","Mount Hor 1","","30.31","35.4","40"
"1009","Rithmah","Ashnah","","31.8","34.93","213"
"101","Ashdod","","","31.8","34.63","212"
"1010","River","Euphrates","","35.09","40.42","498"
"1011","Rock","Maon","","31.41","35.11","94"
"1012","Rogelim","Mahanaim","","32.21","35.63","326"
"1013","Rome","","","41.9","12.48","575"
"1014","Rumah","Arumah","","32.15","35.31","313"
"1015","Sahar","Helbon","","33.66","36.24","474"
"1016","Salamis","","","35.17","33.9","502"
"1017","Salecah","","","32.49","36.71","350"
"1018","Salem","Jerusalem","","31.77","35.23","198"
"1019","Salim","","","32.39","35.52","344"
"102","Ashdod's","Ashdod","","31.8","34.63","212"
"1020","Salmone","","","35.21","26.27","504"
"1021","Salt Sea","","","31.53","35.48","121"
"1022","Samaria","","","32.28","35.19","332"
"1023","Samaria's","Samaria","","32.28","35.19","332"
"1024","Samos","","","37.71","26.93","536"
"1025","Samothrace","","","40.46","25.48","561"
"1026","Sansannah","Madmannah","","31.39","34.94","90"
"1027","Sardis","","","38.47","28.11","550"
"1028","Sarid","","","32.68","35.19","382"
"1029","Chinnereth","Sea of Galilee","","32.8","35.58","409"
"103","Ashkelon","","","31.66","34.54","151"
"1030","Chinneroth","Sea of Galilee","","32.8","35.58","409"
"1031","Egypt","Red Sea","water","27.08","34.77","11"
"1032","Galilee","","water","32.8","35.58","409"
"1033","Jazer","Jazer","water","31.94","35.72","275"
"1034","Tiberias","Sea of Galilee","water","32.8","35.58","409"
"1035","Arabah","Salt Sea","water","31.53","35.48","121"
"1036","Philistines","Great Sea","water","33.24","33.47","456"
"1037","Seba","Sheba","","9.02","38.74","2"
"1038","Sebam","Sibmah","","31.81","35.76","216"
"1039","Secacah","","","31.76","35.28","188"
"104","Ashkenaz","","","40.6","44.6","565"
"1040","Second Quarter","Jerusalem","","31.77","35.23","198"
"1041","Secu","","; now Suweika","31.88","35.2","259"
"1042","Seir","Bozrah 1","","30.73","35.6","52"
"1043","Seirah","Bethel 1","SE Ephraim","31.93","35.22","271"
"1044","Sela","","","30.32","35.45","41"
"1045","Seleucia","","","36.11","35.92","510"
"1046","Seneh","","","31.85","35.28","242"
"1047","Senir","Mount Hermon","","33.41","35.85","465"
"1048","Sephar","","","14.55","44.39","3"
"1049","Sepharad","Sardis","","38.47","28.11","550"
"105","Ashnah","","","31.8","34.93","213"
"1050","Sepharvaim","","","33.78","44.45","477"
"1051","Serpent's Stone","En-rogel","","31.76","35.23","189"
"1052","Shaalabbin","Shaalbim","","31.87","34.98","253"
"1053","Shaalbim","","now Salbit","31.87","34.98","253"
"1054","Shaalim","Gibeon","","31.84","35.18","239"
"1055","Shaaraim","","","31.7","34.89","165"
"1056","Shaaraim","Sharuhen","","31.28","34.48","83"
"1057","Shahazumah","Beth-shemesh 2","","32.4","35.5","345"
"1058","Shalishah","Gibeon","","31.84","35.18","239"
"1059","Shallecheth","Jerusalem","","31.77","35.23","198"
"106","Ashtaroth","","","32.83","36.01","414"
"1060","Shamir","","","31.41","34.93","95"
"1061","Shamir","","now Sanur","32.36","35.25","338"
"1062","Shaphir","","","31.74","34.69","175"
"1063","Sharon","","region","32.63","34.94","377"
"1064","Sharon","Mount Hermon","","33.41","35.85","465"
"1065","Sharuhen","","now Tel Sharuhen","31.28","34.48","83"
"1066","Shaveh-kiriathaim","Kiriathaim 1","","31.58","35.7","131"
"1067","Sheba","","region","9.02","38.74","2"
"1068","Shebarim","Ai 1","","31.91","35.26","268"
"1069","Shechem","","","32.21","35.28","325"
"107","Ashteroth-karnaim","","","32.76","36.01","403"
"1070","Gate","Jerusalem","","31.77","35.23","198"
"1071","Shema","Moladah","","31.16","35.05","74"
"1072","Shen","Mizpah 3","","31.83","35.18","227"
"1073","Shepham","Ain 1","","34.35","36.38","484"
"1074","Shephelah","Ekron","region","31.77","34.85","200"
"1075","Shibah","Beersheba","","31.24","34.84","81"
"1076","Shihor","Brook of Egypt","; river","31.03","33.85","66"
"1077","Shihor-libnath","","river; now Nahar Tanninim","32.53","34.9","359"
"1078","Shikkeron","Ekron","","31.77","34.85","200"
"1079","Shilhim","Sharuhen","","31.28","34.48","83"
"108","Asia","","region","39.23","32.73","555"
"1080","Shiloah","Jerusalem","","31.77","35.23","198"
"1081","Shiloh","","","32.05","35.28","300"
"1082","Shimron","","","32.7","35.21","388"
"1083","Shimron-meron","Shimron","","32.7","35.21","388"
"1084","Shinar","Babel","region","32.53","44.42","358"
"1085","Shion","","","32.71","35.33","390"
"1086","Shittim","Abel-shittim","","31.85","35.64","245"
"1087","Shoa","Ecbatana","","34.79","48.51","491"
"1088","Shual","Ophrah 1","","31.95","35.29","279"
"1089","Shunem","","","32.6","35.33","368"
"109","Asshur","Nineveh","","36.35","43.15","516"
"1090","Shur","","","30.23","33.24","38"
"1091","Sibmah","","","31.81","35.76","216"
"1092","Sibraim","Hamath","","35.13","36.74","500"
"1093","Sidon","","","33.56","35.36","470"
"1094","Sidon","Sidon","","33.56","35.36","470"
"1095","Silla","Jerusalem","","31.77","35.23","198"
"1096","Siloam","Jerusalem","","31.77","35.23","198"
"1097","Sin","","region","28.83","33.42","19"
"1098","Sinai","Mount Sinai","","28.53","33.97","16"
"1099","Siphmoth","Anim","","31.37","35.07","87"
"11","Abiezer","Ophrah 2","","32.6","35.28","370"
"110","Assos","","","39.48","26.33","556"
"1100","Sirah","","","31.55","35.1","123"
"1101","Sirion","Mount Hermon","","33.41","35.85","465"
"1102","Sitnah","Gerar","","31.39","34.56","89"
"1103","Smyrna","","","38.45","27.16","549"
"1104","Soco","Socoh 1","","31.68","34.97","157"
"1105","Socoh","","","31.68","34.97","157"
"1106","Socoh","Debir 1","","31.41","34.96","96"
"1107","Sodom","","","31.19","35.39","77"
"1108","Solomon's","Jerusalem","","31.77","35.23","198"
"1109","Solomon's Portico","Jerusalem","KMZ:Solomons porch","31.77","35.23","198"
"111","Assyria","Nineveh","region","36.35","43.15","516"
"1110","South","","","0.0","0.0","1"
"1111","Spain","","region","40.48","-3.17","562"
"1112","Straight","Damascus","","33.51","36.31","468"
"1113","Succoth","","","32.19","35.63","323"
"1114","Succoth","","","30.62","32.25","47"
"1115","Suph","Red Sea","","27.08","34.77","11"
"1116","Suphah","Red Sea","","27.08","34.77","11"
"1117","Sur","Jerusalem","","31.77","35.23","198"
"1118","Susa","","","32.18","48.25","320"
"1119","Sychar","","","32.2","35.31","324"
"112","Atad","Abel-mizraim","","0.0","0.0","1"
"1120","Syene","","now Aswan","24.06","32.89","8"
"1121","Syracuse","","","37.06","15.29","531"
"1122","Syria","Damascus","region","33.51","36.31","468"
"1123","Syrtis","","water; from harper; now Sidra","31.76","18.5","187"
"1124","Taanach","","","32.51","35.21","356"
"1125","Taanath-shiloh","","; now Khirbat Tana","32.15","35.38","312"
"1126","Tabbath","Abel-meholah","","32.35","35.53","337"
"1127","Taberah","Hazeroth","","28.91","34.5","21"
"1128","Tabor","Mount Tabor","","32.68","35.39","381"
"1129","Tabor","Chesulloth","","32.68","35.32","380"
"113","Ataroth","","","31.6","35.7","135"
"1130","Tabor","Bethel 1","","31.93","35.22","271"
"1131","Tadmor","","","34.55","38.26","487"
"1132","Tahath","Mount Hor 1","","30.31","35.4","40"
"1133","Tahpanhes","","http://en.wikipedia.org/wiki/Tahpanhes","30.86","32.17","54"
"1134","Tamar","Tadmor","","34.55","38.26","487"
"1135","Tamar","","now Kurnub; from New Bible Dictionary","31.02","35.06","65"
"1136","Tappuah","","","32.11","35.23","306"
"1137","Tappuah","Enam","","32.15","35.12","311"
"1138","Taralah","Haeleph","","31.79","35.19","207"
"1139","Tarshish","","","36.95","-6.37","527"
"114","Ataroth","Upper Beth-horon","","31.85","35.12","246"
"1140","Tarsus","","","36.91","34.89","526"
"1141","Tehaphnehes","Tahpanhes","","30.86","32.17","54"
"1142","Tekoa","","","31.63","35.21","146"
"1143","Tel-abib","Calneh","; from Arch. Enc. of Holy Land","32.12","45.22","308"
"1144","Telaim","Moladah","","31.16","35.05","74"
"1145","Telassar","Susa","from http://en.wikipedia.org/wiki/Elam","32.18","48.25","320"
"1146","Telem","Moladah","","31.16","35.05","74"
"1147","Tel-harsha","Calneh","near the sea","32.12","45.22","308"
"1148","Tel-melah","Calneh","from tyndale","32.12","45.22","308"
"1149","Tema","","","27.63","38.55","13"
"115","Ataroth-addar","Upper Beth-horon","","31.85","35.12","246"
"1150","Teman","","region","30.2","35.73","37"
"1151","Terah","Mount Hor 1","","30.31","35.4","40"
"1152","There","Jerusalem","","31.77","35.23","198"
"1153","Place","Jerusalem","","31.77","35.23","198"
"1154","Skull","Jerusalem","","31.77","35.23","198"
"1155","Pavement","Jerusalem","","31.77","35.23","198"
"1156","Thebes","","","25.7","32.63","9"
"1157","Thebez","","","32.32","35.36","336"
"1158","Thessalonica","","","40.63","22.93","566"
"1159","Three Taverns","","","41.59","12.82","574"
"116","Athach","","","0.0","0.0","1"
"1160","Thyatira","","","38.92","27.85","551"
"1161","Tiberias","","","32.79","35.52","406"
"1162","Tibhath","Berothah","","33.93","36.15","478"
"1163","Tigris","","","35.98","43.34","509"
"1164","Timnah","","now Tel Batash","31.78","34.9","205"
"1165","Timnah","","","31.69","35.04","163"
"1166","Timnath-heres","","","32.12","35.15","307"
"1167","Timnath-serah","Timnath-heres","","32.12","35.15","307"
"1168","Tiphsah","","","35.84","38.73","506"
"1169","Tiphsah","","","32.16","35.16","315"
"117","Atharim","Zephath","","30.88","34.63","55"
"1170","Tirzah","","","32.27","35.29","331"
"1171","Tishbe","Hazor 1","from http://www.britam.org/naphtali.html","33.01","35.56","434"
"1172","Tob","","from harper; now et-Taiyibeh","32.56","36.24","365"
"1173","Tochen","Ashnah","","31.8","34.93","213"
"1174","Tolad","Baalath-beer","","32.04","35.73","298"
"1175","Tophel","","","30.93","35.61","59"
"1176","Topheth","Valley of Hinnom","","31.76","35.22","191"
"1177","Tower","Jerusalem","","31.77","35.23","198"
"1178","Shechem","Shechem","","32.21","35.28","325"
"1179","Tower","Jerusalem","","31.77","35.23","198"
"118","Athens","","","37.98","23.73","544"
"1180","Tower","Jerusalem","","31.77","35.23","198"
"1181","Trachonitis","","region","32.83","36.5","413"
"1182","Troas","","","39.5","26.08","557"
"1183","Tubal","Pontus","region","40.9","37.79","569"
"1184","Tyre","","","33.27","35.19","461"
"1185","Ulai","","river; from http://en.wikipedia.org/wiki/Ulai","32.17","48.22","317"
"1186","Ummah","","now Alma el Shaab","33.1","35.18","443"
"1187","Uphaz","India","","22.0","77.0","7"
"1188","Upper Beth-horon","","","31.85","35.12","246"
"1189","Ur","","","30.96","46.1","62"
"119","Atroth-shophan","Aroer 2","","31.96","35.91","280"
"1190","Uz","","","30.03","36.44","33"
"1191","Uzal","","now Sanaa","15.35","44.21","4"
"1192","Uzza","Jerusalem","","31.77","35.23","198"
"1193","Uzzen-sheerah","","now Beit Sera","31.88","35.04","260"
"1194","ValeSuccoth","Succoth 1","","32.19","35.63","323"
"1195","Gate","Jerusalem","","31.77","35.23","198"
"1196","Achor","","","31.83","35.39","234"
"1197","Aijalon","Aijalon","","31.84","35.02","237"
"1198","Aven","","","34.0","36.2","479"
"1199","Baca","Valley of Hinnom","","31.76","35.22","191"
"12","Abilene","","","33.58","36.09","471"
"120","Attalia","","","36.88","30.69","525"
"1200","Beracah","","","31.61","35.16","138"
"1201","Elah","","","31.69","34.96","160"
"1202","Eshcol","Mamre","","31.54","35.09","122"
"1203","Gerar","Gerar","","31.39","34.56","89"
"1204","Gibeon","Gibeon","","31.84","35.18","239"
"1205","Hamon-gog","Dibon 1","","31.49","35.78","110"
"1206","Hebron","Mamre","","31.54","35.09","122"
"1207","Hinnom","","","31.76","35.22","191"
"1208","Iphtahel","","","32.83","35.27","412"
"1209","Jehoshaphat","Kidron","","31.77","35.23","194"
"121","Aven","Bethel 1","","31.93","35.22","271"
"1210","Jericho","Jericho","","31.87","35.44","254"
"1211","Jezreel","Jezreel 2","","32.55","35.33","362"
"1212","Lebanon","Mount Hermon","","33.41","35.85","465"
"1213","Mizpeh","","","33.28","35.57","462"
"1214","Rephaim","","","31.75","35.22","182"
"1215","Salt","","from nbd","31.08","35.38","68"
"1216","Shaveh","Jerusalem","","31.77","35.23","198"
"1217","Shittim","Abel-shittim","","31.85","35.64","245"
"1218","Siddim","","","31.23","35.51","80"
"1219","Slaughter","Valley of Hinnom","","31.76","35.22","191"
"122","Avith","Bozrah 1","","30.73","35.6","52"
"1220","Sorek","","now Wadi es-Sarar","31.82","34.98","225"
"1221","Succoth","Succoth 1","","32.19","35.63","323"
"1222","Zeboim","","from tyndale; now Wadi ed Dubba","31.93","35.42","274"
"1223","Zephathah","","","31.61","34.91","140"
"1224","Zered","Zered","","30.88","35.89","56"
"1225","Arnon","Arnon","","31.42","35.67","98"
"1226","SonHinnom","Valley of Hinnom","","31.76","35.22","191"
"1227","Travelers","Dibon 1","","31.49","35.78","110"
"1228","Waheb","Red Sea","","27.08","34.77","11"
"1229","Field","Valley of Hinnom","","31.76","35.22","191"
"123","Avva","Hena","","34.46","41.96","486"
"1230","Gate","Jerusalem","","31.77","35.23","198"
"1231","Way","Jerusalem","road","31.77","35.23","198"
"1232","Rocks","Engedi","","31.46","35.39","106"
"1233","Yiron","","now Yaroun","33.08","35.41","440"
"1234","Zaanan","Shaphir","","31.74","34.69","175"
"1235","Zaanannim","Kedesh 1","","33.11","35.53","445"
"1236","Zair","Zoar","","30.92","35.41","58"
"1237","Zalmon","Mount Ebal","","32.23","35.27","327"
"1238","Zalmonah","Dibon 1","","31.49","35.78","110"
"1239","Zanoah","","","31.71","35.0","169"
"124","Avvim","Hebron","","31.53","35.09","120"
"1240","Zanoah","","","31.36","35.0","85"
"1241","Zaphon","","; now Qos","32.23","35.58","328"
"1242","Zarephath","","","33.43","35.3","466"
"1243","Zarethan","","now Tell es Saidiyeh; from harper","32.26","35.57","330"
"1244","Zeboiim","Admah","","31.11","35.41","70"
"1245","Zeboim","","","31.1","35.47","69"
"1246","Zedad","","","34.31","36.92","483"
"1247","Zela","Haeleph","","31.79","35.19","207"
"1248","Zelzah","","","31.71","35.18","170"
"1249","Zemaraim","","","31.91","35.45","267"
"125","Ayyah","Gaza","","31.52","34.43","118"
"1250","Zenan","Shaphir","","31.74","34.69","175"
"1251","Zephath","","","30.88","34.63","55"
"1252","Zer","Hammath","","33.12","35.16","447"
"1253","Zered","","river","30.88","35.89","56"
"1254","Zeredah","Mount Ebal","","32.23","35.27","327"
"1255","Zeredah","Zarethan","","32.26","35.57","330"
"1256","Zererah","Zarethan","; from tyndale","32.26","35.57","330"
"1257","Zereth-shahar","","","31.61","35.56","142"
"1258","Ziddim","","","32.81","35.43","410"
"1259","Ziklag","","","31.37","34.87","88"
"126","Azal","Mount of Olives","","31.77","35.24","201"
"1260","Zimri","Susa","","32.18","48.25","320"
"1261","Zin","Kadesh-barnea","region","30.68","34.49","49"
"1262","Zin","Kadesh-barnea","","30.68","34.49","49"
"1263","Zion","Jerusalem","","31.77","35.23","198"
"1264","Zion's","Jerusalem","","31.77","35.23","198"
"1265","Zior","","","31.58","35.14","133"
"1266","Ziph","","","31.48","35.13","109"
"1267","Ziph","Moladah","","31.16","35.05","74"
"1268","Ziphron","Hazar-enan","","34.22","37.24","482"
"1269","Ziz","","","31.57","35.4","128"
"127","Azazel","","","0.0","0.0","1"
"1270","Zoan","","","30.97","31.88","63"
"1271","Zoar","","","30.92","35.41","58"
"1272","Zobah","Zedad","region","34.31","36.92","483"
"1273","Zobah-Hamath","Zedad","","34.31","36.92","483"
"1274","Zophim","","","31.76","35.72","190"
"1275","Zorah","","","31.76","34.96","185"
"1276","Zuph","Gibeon","","31.84","35.18","239"
"128","Azekah","","","31.7","34.93","166"
"129","Azmaveth","Beth-azmaveth","","31.83","35.26","231"
"13","Abronah","Ezion-geber","","29.75","35.03","28"
"130","Azmon","","","30.95","34.38","61"
"131","Aznoth-tabor","Mount Tabor","","32.68","35.39","381"
"132","Azotus","Ashdod","","31.8","34.63","212"
"133","Baal","Baalath-beer","","32.04","35.73","298"
"134","Baalah","Beersheba","","31.24","34.84","81"
"135","Baalah","Kiriath-jearim","","31.77","34.99","192"
"136","Baalath","","","31.92","35.05","269"
"137","Baalath","Baalath 1","","31.92","35.05","269"
"138","Baalath-beer","","","32.04","35.73","298"
"139","Baale-judah","Kiriath-jearim","","31.77","34.99","192"
"14","Accad","","","33.09","44.12","441"
"140","Baal-gad","Mount Hermon","","33.41","35.85","465"
"141","Baal-hamon","Mount Hermon","","33.41","35.85","465"
"142","Baal-hazor","","","31.97","35.27","286"
"143","Baal-hermon","Mount Hermon","","33.41","35.85","465"
"144","Baal-meon","","","31.67","35.73","155"
"145","Baal-peor","Pisgah","","31.76","35.71","186"
"146","Baal-perazim","Valley of Rephaim","","31.75","35.22","182"
"147","Baal-shalishah","Gilgal 2","","32.02","35.22","294"
"148","Baal-tamar","Gibeah 1","","31.82","35.23","223"
"149","Baal-zephon","","","29.93","32.39","30"
"15","Acco","","","32.92","35.08","425"
"150","Babel","","","32.53","44.42","358"
"151","Babylon","Babel","","32.53","44.42","358"
"152","Babylonia","Babel","","32.53","44.42","358"
"153","Baharum","Bahurim","","31.82","35.38","224"
"154","Bahurim","","","31.82","35.38","224"
"155","Balah","Beersheba","","31.24","34.84","81"
"156","Bamah","Gibeon","","31.84","35.18","239"
"157","Bamoth","Pisgah","","31.76","35.71","186"
"158","Bamoth-baal","Pisgah","","31.76","35.71","186"
"159","Bashan","Golan","region","32.8","35.93","408"
"16","Achaia","Athens","region","37.98","23.73","544"
"160","Bath-rabbim","Heshbon","","31.8","35.8","210"
"161","Bealoth","Moladah","","31.16","35.05","74"
"162","Bealoth","Achzib 2","","33.04","35.1","438"
"163","Beautiful","Jerusalem","","31.77","35.23","198"
"164","Beer","Eneglaim","","30.99","35.49","64"
"165","Beer","Beeroth","","31.9","35.21","264"
"166","Beer-elim","Eneglaim","","30.99","35.49","64"
"167","Beer-lahai-roi","Kadesh-barnea","","30.68","34.49","49"
"168","Beeroth","","","31.9","35.21","264"
"169","Beeroth Bene-jaakan","Mount Hor 1","","30.31","35.4","40"
"17","Achshaph","","","32.95","35.17","428"
"170","Beersheba","","","31.24","34.84","81"
"171","Beeshterah","Ashtaroth","","32.83","36.01","414"
"172","Bela","Zoar","","30.92","35.41","58"
"173","Bene-berak","","uk.geocities.com/jonpartin/joshua4.html","32.03","34.82","296"
"174","Bene-jaakan","Mount Hor 1","","30.31","35.4","40"
"175","Benjamin","Jerusalem","","31.77","35.23","198"
"176","Beon","Baal-meon","","31.67","35.73","155"
"177","Berea","","","40.51","22.2","563"
"178","Bered","Kadesh-barnea","","30.68","34.49","49"
"179","Berothah","","","33.93","36.15","478"
"18","Achzib","","","31.7","35.0","164"
"180","Berothai","Berothah","","33.93","36.15","478"
"181","Besor","","wadi esh sheria","31.39","34.43","91"
"182","Betah","Berothah","","33.93","36.15","478"
"183","Beten","","","32.93","35.27","426"
"184","Beth-anath","","","33.14","35.42","450"
"185","Beth-anoth","","","31.55","35.12","124"
"186","Bethany","","","31.77","35.26","193"
"187","Bethany","","","31.83","35.55","232"
"188","Beth-arabah","","","31.84","35.5","238"
"189","Beth-arbel","","","32.56","35.84","364"
"19","Achzib","","","33.04","35.1","438"
"190","Beth-ashbea","","","0.0","0.0","1"
"191","Beth-aven","","","31.89","35.25","261"
"192","Beth-azmaveth","","","31.83","35.26","231"
"193","Beth-baal-meon","Baal-meon","","31.67","35.73","155"
"194","Beth-barah","Bethany 2","","31.83","35.55","232"
"195","Beth-biri","Madmannah","","31.39","34.94","90"
"196","Beth-car","Mizpah 3","","31.83","35.18","227"
"197","Beth-dagon","","","31.9","34.77","266"
"198","Beth-dagon","","","32.89","35.1","421"
"199","Beth-diblathaim","Dibon 1","","31.49","35.78","110"
"2","Abarim","Mount Nebo","","31.76","35.74","184"
"20","Adadah","","","31.18","34.96","76"
"200","Beth-eden","Damascus","","33.51","36.31","468"
"201","Beth-eked","Jezreel 2","","32.55","35.33","362"
"202","Bethel","","","31.93","35.22","271"
"203","Bethel","Baalath-beer","","32.04","35.73","298"
"204","Beth-emek","","","32.97","35.16","431"
"205","Bethesda","Jerusalem","","31.77","35.23","198"
"206","Beth-ezel","Shaphir","","31.74","34.69","175"
"207","Beth-gamul","","","31.51","35.84","116"
"208","Beth-gilgal","Gilgal 1","from tyndale","31.86","35.51","247"
"209","Beth-haccherem","","","31.66","35.24","152"
"21","Adam","","","32.09","35.56","303"
"210","Beth-haggan","Megiddo","","32.58","35.18","367"
"211","Beth-haram","","","31.81","35.58","219"
"212","Beth-haran","Beth-haram","","31.81","35.58","219"
"213","Beth-hoglah","","","31.83","35.51","235"
"214","Beth-horon","Lower Beth-horon","","31.87","35.12","257"
"215","Beth-jeshimoth","","","31.77","35.59","197"
"216","Beth-le-aphrah","Ophrah 1","","31.95","35.29","279"
"217","Beth-lebaoth","Madmannah","","31.39","34.94","90"
"218","Bethlehem","","","31.7","35.21","167"
"219","Bethlehem","","","32.73","35.18","397"
"22","Adamah","","","32.72","35.43","392"
"220","Bethlehem Ephrathah","Bethlehem 1","","31.7","35.21","167"
"221","Beth-maacah","Abel-beth-maacah","","33.26","35.57","460"
"222","Beth-marcaboth","Madmannah","","31.39","34.94","90"
"223","Beth-meon","Baal-meon","","31.67","35.73","155"
"224","Beth-millo","Shechem","","32.21","35.28","325"
"225","Beth-nimrah","","now Beth-Nimrah","31.9","35.62","265"
"226","Beth-pazzez","En-gannim 2","","32.46","35.3","348"
"227","Beth-pelet","Hazar-shual","","31.21","34.94","78"
"228","Beth-peor","","","31.65","35.71","149"
"229","Bethphage","","","31.79","35.25","206"
"23","Adami-nekeb","","","32.61","35.54","371"
"230","Beth-rehob","","","33.21","35.54","454"
"231","Bethsaida","","","32.9","35.62","422"
"232","Beth-shan","","","32.5","35.5","352"
"233","Beth-shean","Beth-shan","","32.5","35.5","352"
"234","Beth-shemesh","","","31.75","34.97","181"
"235","Beth-shemesh","","","32.4","35.5","345"
"236","Beth-shemesh","Beth-anath","","33.14","35.42","450"
"237","Beth-shittah","","","32.55","35.43","361"
"238","Beth-tappuah","","","31.52","35.05","119"
"239","Beth-togarmah","","region","40.06","45.03","560"
"24","Addar","","","30.95","34.71","60"
"240","Bethuel","Baalath-beer","","32.04","35.73","298"
"241","Bethul","Baalath-beer","","32.04","35.73","298"
"242","Beth-zur","","","31.59","35.1","134"
"243","Betonim","","","32.01","35.7","289"
"244","River","Jerusalem","region","31.77","35.23","198"
"245","Bezek","","","31.89","34.95","263"
"246","Bezek","","","32.36","35.4","340"
"247","Bezer","","","32.51","36.48","354"
"248","Bileam","Ibleam","","32.45","35.28","347"
"249","Bilhah","Beersheba","","31.24","34.84","81"
"25","Addon","","","0.0","0.0","1"
"250","Bithynia","","region","40.9","30.68","570"
"251","Biziothiah","Beersheba","","31.24","34.84","81"
"252","Bochim","Bethel 1","","31.93","35.22","271"
"253","Bor-ashan","Ashnah","","31.8","34.93","213"
"254","Bozez","","","31.85","35.28","243"
"255","Bozkath","Lachish","","31.56","34.84","126"
"256","Bozrah","","","30.73","35.6","52"
"257","Bozrah","Bezer","","32.51","36.48","354"
"258","Broad Wall","Jerusalem","","31.77","35.23","198"
"259","Egypt","","river: now Wadi al Arish; http://en.wikipedia.org/wiki/Brook_of_Egypt","31.03","33.85","66"
"26","Adithaim","","","31.7","34.89","165"
"260","Arabah","Hamath","","35.13","36.74","500"
"261","Willows","Jordan Valley","","32.3","35.55","334"
"262","Buz","Dedan","","26.62","37.91","10"
"263","Cabbon","Eglon","","31.5","34.76","111"
"264","Cabul","","","32.86","35.21","417"
"265","Cabul","Cabul 1","","32.86","35.21","417"
"266","Caesarea","","","32.49","34.89","351"
"267","Caesarea Philippi","","","33.24","35.69","457"
"268","Calah","","","36.14","43.31","511"
"269","Calneh","","","32.12","45.22","308"
"27","Admah","","","31.11","35.41","70"
"270","Calno","Calneh","","32.12","45.22","308"
"271","Cana","","","32.74","35.33","399"
"272","Canaan","Gath","region","31.69","34.84","162"
"273","Canneh","Calneh","","32.12","45.22","308"
"274","Capernaum","","","32.88","35.57","418"
"275","Caphtor","Crete","http://en.wikipedia.org/wiki/Caphtor","35.17","25.0","501"
"276","Cappadocia","","region","36.73","35.48","520"
"277","Carchemish","","","36.82","38.01","522"
"278","Carmel","","","31.43","35.13","99"
"279","Casiphia","Hamath","","35.13","36.74","500"
"28","Adoraim","","","31.51","34.98","114"
"280","Cauda","","island; now Gavdos; http://www.creteisland.gr/english/chania/selino/gavdos/","34.84","24.09","492"
"281","Cenchreae","","","37.88","22.99","540"
"282","Chaldea","Ur","region","30.96","46.1","62"
"283","Chebar","","; now Nehardea; http://www.hebrewhistory.info/factpapers/fp031_iraq.htm","33.15","44.06","451"
"284","Chephar-ammoni","","; now Khirbat Kafr Ana","31.96","35.25","283"
"285","Chephirah","","now Kirbat el Kafira","31.83","35.09","233"
"286","Cherith","Jordan Valley","","32.3","35.55","334"
"287","Cherub","Babel","","32.53","44.42","358"
"288","Chesalon","","","31.78","35.05","202"
"289","Chesil","Baalath-beer","","32.04","35.73","298"
"29","Adramyttium","","","39.57","26.93","558"
"290","Chesulloth","","","32.68","35.32","380"
"291","Chezib","Achzib 1","","31.7","35.0","164"
"292","Chilmad","Nineveh","","36.35","43.15","516"
"293","Chinnereth","Sea of Galilee","","32.8","35.58","409"
"294","Chinnereth","Sea of Galilee","","32.8","35.58","409"
"295","Chinneroth","Sea of Galilee","region","32.8","35.58","409"
"296","Chios","","now Chios","38.44","26.06","548"
"297","Chisloth-tabor","Chesulloth","","32.68","35.32","380"
"298","Chitlish","Gederah","","31.82","34.77","221"
"299","Chorazin","","","32.9","35.55","423"
"3","Abdon","","","33.04","35.17","437"
"30","Adriatic Sea","","water","42.41","16.37","576"
"300","Cilicia","Tarsus","region","36.91","34.89","526"
"301","Destruction","On","","30.1","31.33","35"
"302","Salt","Engedi","","31.46","35.39","106"
"303","Lord","Jerusalem","","31.77","35.23","198"
"304","Cnidus","","","36.68","27.37","519"
"305","Colossae","","","37.78","29.25","538"
"306","Corinth","","","37.9","22.87","541"
"307","Gate","Jerusalem","","31.77","35.23","198"
"308","Cos","","","36.8","27.08","521"
"309","Cozeba","Achzib 1","","31.7","35.0","164"
"31","Adullam","","","31.65","35.0","148"
"310","Crete","","island","35.17","25.0","501"
"311","Cun","Berothah","","33.93","36.15","478"
"312","Cush","Ethiopia","","21.95","31.34","6"
"313","Cushan","Ethiopia","","21.95","31.34","6"
"314","Cuth","","http://en.wikipedia.org/wiki/Kutha","32.73","44.66","396"
"315","Cuthah","Cuth","","32.73","44.66","396"
"316","Cyprus","","island","35.01","33.2","497"
"317","Cyrene","","http://en.wikipedia.org/wiki/Cyrene%2C_Libya","32.82","21.85","411"
"318","Dabbesheth","","","33.0","35.26","432"
"319","Daberath","","","32.69","35.37","385"
"32","Adummim","","","31.81","35.36","220"
"320","Dalmanutha","Magadan","","32.84","35.52","415"
"321","Dalmatia","","region","43.51","16.07","577"
"322","Damascus","","","33.51","36.31","468"
"323","Dan","","","33.24","35.65","458"
"324","Dannah","","","31.56","34.97","125"
"325","Debir","","","31.41","34.96","96"
"326","Debir","","now Ed Dhaherie","31.81","35.34","217"
"327","Debir","Lo-debar","","32.66","35.78","378"
"328","Decapolis","Damascus","region","33.51","36.31","468"
"329","Dedan","","http://en.wikipedia.org/wiki/Al-%27Ula","26.62","37.91","10"
"33","Aenon","","","32.39","35.54","343"
"330","Derbe","","","37.35","33.27","533"
"331","Dibon","","","31.49","35.78","110"
"332","Dibon","Adadah","","31.18","34.96","76"
"333","Dibon-gad","Dibon 1","","31.49","35.78","110"
"334","Dilean","Lachish","","31.56","34.84","126"
"335","Dimnah","","","32.78","35.32","405"
"336","Dimonah","Adadah","","31.18","34.96","76"
"337","Dinhabah","","","30.33","35.52","42"
"338","Diviners' Oak","Shechem","","32.21","35.28","325"
"339","Dizahab","","","28.5","34.51","15"
"34","Ahava","","","33.62","42.78","472"
"340","Dophkah","","","28.77","33.4","18"
"341","Dor","","","32.61","34.91","372"
"342","Dothan","","","32.42","35.18","346"
"343","Dragon Spring","Jerusalem","","31.77","35.23","198"
"344","Dumah","","","31.43","34.98","100"
"345","Dumah","Arabia","","27.4","37.7","12"
"346","Gate","Jerusalem","KMZ:Dung Gate","31.77","35.23","198"
"347","Dura","Babel","","32.53","44.42","358"
"348","East","Ammon","","31.95","35.92","277"
"349","Gate","Jerusalem","","31.77","35.23","198"
"35","Ahlab","","","33.02","35.44","436"
"350","Ebenezer","Mizpah 3","","31.83","35.18","227"
"351","Ebez","","now Al-Bathan","32.26","35.32","329"
"352","Ebron","Abdon","","33.04","35.17","437"
"353","Ecbatana","","","34.79","48.51","491"
"354","Eden","","","0.0","0.0","1"
"355","Eder","Bethlehem 1","","31.7","35.21","167"
"356","Eder","Adadah","","31.18","34.96","76"
"357","Edom","Bozrah 1","","30.73","35.6","52"
"358","Edrei","","","32.62","36.09","374"
"359","Eglaim","Eneglaim","","30.99","35.49","64"
"36","Ai","","","31.91","35.26","268"
"360","Eglath-shelishiyah","","","0.0","0.0","1"
"361","Eglon","","","31.5","34.76","111"
"362","Egypt","On","region","30.1","31.33","35"
"363","Egypt's","On","","30.1","31.33","35"
"364","Ekron","","","31.77","34.85","200"
"365","Elam","Susa","region","32.18","48.25","320"
"366","Elath","","","29.52","35.0","27"
"367","El-bethel","Bethel 1","","31.93","35.22","271"
"368","Elealeh","","","31.81","35.82","215"
"369","Elim","","","29.3","32.98","25"
"37","Ai","Heshbon","","31.8","35.8","210"
"370","Elishah","Cyprus","","35.01","33.2","497"
"371","Elkosh","","","0.0","0.0","1"
"372","Ellasar","","region; http://en.wikipedia.org/wiki/Urkesh","37.05","40.99","530"
"373","Elon","","","31.97","35.11","284"
"374","Elonbeth-hanan","","","31.85","35.1","241"
"375","Eloth","Elath","","29.52","35.0","27"
"376","El-paran","Paran","","29.15","33.54","24"
"377","Elteke","Eltekeh","","31.86","35.06","251"
"378","Eltekeh","","","31.86","35.06","251"
"379","Eltekon","","from tyndale","31.66","34.99","150"
"38","Aiath","Ai 1","","31.91","35.26","268"
"380","Eltolad","Baalath-beer","","32.04","35.73","298"
"381","Emek-keziz","Beth-hoglah","","31.83","35.51","235"
"382","Emmaus","","","31.83","34.98","236"
"383","Enaim","Timnah 1","","31.78","34.9","205"
"384","Enam","","","32.15","35.12","311"
"385","En-dor","","","32.62","35.38","375"
"386","Eneglaim","","","30.99","35.49","64"
"387","En-gannim","","","31.75","34.95","178"
"388","En-gannim","","","32.46","35.3","348"
"389","Engedi","","","31.46","35.39","106"
"39","Aija","Ai 1","","31.91","35.26","268"
"390","En-haddah","","","32.47","35.25","349"
"391","En-hakkore","Beth-shemesh 1","","31.75","34.97","181"
"392","En-hazor","","","33.1","35.35","442"
"393","En-mishpat","Kadesh-barnea","","30.68","34.49","49"
"394","En-rimmon","Ain 2","","31.37","34.86","86"
"395","En-rogel","","","31.76","35.23","189"
"396","En-shemesh","","","31.77","35.27","196"
"397","En-tappuah","Tappuah 1","","32.11","35.23","306"
"398","Ephah","Midian","","28.93","34.9","22"
"399","Ephes-dammim","","","31.69","34.94","161"
"4","Abel","Abel-beth-maacah","","33.26","35.57","460"
"40","Aijalon","","","31.84","35.02","237"
"400","Ephesus","","","37.95","27.36","543"
"401","Ephraim","Ophrah 1","","31.95","35.29","279"
"402","Ephraim","Jerusalem","","31.77","35.23","198"
"403","Ephrath","Bethlehem 1","","31.7","35.21","167"
"404","Ephrathah","Bethlehem 1","","31.7","35.21","167"
"405","Ephron","Mount Ephron","","31.67","35.04","154"
"406","Ephron","Ophrah 1","","31.95","35.29","279"
"407","Erech","","now Uruk","32.32","45.63","335"
"408","Esau","Bozrah 1","","30.73","35.6","52"
"409","Esek","Gerar","","31.39","34.56","89"
"41","Ain","","","34.35","36.38","484"
"410","Eshan","","","31.42","35.03","97"
"411","Eshtaol","","","31.78","35.0","203"
"412","Eshtemoa","Anim","","31.37","35.07","87"
"413","Eshtemoh","Anim","","31.37","35.07","87"
"414","Etam","","http://www.tiuli.com/english/Judean_Mountains/Judean_Mountains.asp","31.73","35.05","174"
"415","Etam","Ain 2","","31.37","34.86","86"
"416","Etam","","now Khirbet el Khokh; palestine-family.net/index.phpnav=8-18&cid=17&did=193","31.68","35.17","159"
"417","Etham","","","30.46","32.28","44"
"418","Ether","Ashnah","","31.8","34.93","213"
"419","Ethiopia","","region","21.95","31.34","6"
"42","Ain","","","31.37","34.86","86"
"420","Eth-kazin","Dimnah","","32.78","35.32","405"
"421","Euphrates","","river","35.09","40.42","498"
"422","Ezem","Baalath-beer","","32.04","35.73","298"
"423","Ezion-geber","","","29.75","35.03","28"
"424","Fair Havens","","","34.92","24.73","495"
"425","Field","Jerusalem","","31.77","35.23","198"
"426","Gate","Jerusalem","","31.77","35.23","198"
"427","ForumAppius","","http://gnswww.nga.mil/geonames/Gazetteer/Search/Results.jspFeature__Unique_Feature_ID=-117178&Diacritics=Yes&reload=1","41.46","12.99","573"
"428","Gate","Jerusalem","","31.77","35.23","198"
"429","Gaash","Timnath-heres","","32.12","35.15","307"
"43","Akeldama","Jerusalem","","31.77","35.23","198"
"430","Gabbatha","Jerusalem","","31.77","35.23","198"
"431","Galatia","Lystra","","37.57","32.45","535"
"432","Galeed","Ramoth-gilead","","32.56","36.0","366"
"433","Galilee","Nazareth","region","32.7","35.3","389"
"434","Gallim","","; from tyndale","31.81","35.25","218"
"435","Gamad","Arvad","","34.85","35.85","494"
"436","Gareb","Jerusalem","","31.77","35.23","198"
"437","Benjamin","Jerusalem","","31.77","35.23","198"
"438","Ephraim","Jerusalem","","31.77","35.23","198"
"439","Gate","Jerusalem","","31.77","35.23","198"
"44","Akrabbim","","","30.68","35.26","50"
"440","Gate","Jerusalem","","31.77","35.23","198"
"441","Gate","Jerusalem","","31.77","35.23","198"
"442","Gath","","","31.69","34.84","162"
"443","Gath-hepher","","","32.73","35.32","398"
"444","Gath-rimmon","","","32.06","34.88","301"
"445","Gath-rimmon","Ibleam","","32.45","35.28","347"
"446","Gaza","","","31.52","34.43","118"
"447","Geba","","","31.85","35.25","244"
"448","Geba","Gibeon","","31.84","35.18","239"
"449","Gebal","","","34.11","35.64","481"
"45","Alemeth","","","31.82","35.28","226"
"450","Gebim","","","31.8","35.25","209"
"451","Geder","Gedor 1","","31.63","35.08","145"
"452","Gederah","","","31.82","34.77","221"
"453","Gederoth","Gederah","","31.82","34.77","221"
"454","Gederothaim","Gederah","","31.82","34.77","221"
"455","Gedor","","","31.63","35.08","145"
"456","Gedor","Gederah","","31.82","34.77","221"
"457","Geliloth","Gilgal 1","","31.86","35.51","247"
"458","Gennesaret","","","32.85","35.5","416"
"459","Gerar","","","31.39","34.56","89"
"46","Alexandria","","","31.22","29.95","79"
"460","Geruth Chimham","Bethlehem 1","","31.7","35.21","167"
"461","Geshur","","; now Leja","33.0","36.41","433"
"462","Gethsemane","Jerusalem","","31.77","35.23","198"
"463","Gezer","","","31.87","34.92","256"
"464","Giah","Ammah","","31.86","35.34","249"
"465","Gibbethon","","now Qibya","31.97","35.0","285"
"466","Gibeah","","","31.82","35.23","223"
"467","Gibeah","Carmel","","31.43","35.13","99"
"468","Gibeath-elohim","Bethel 1","","31.93","35.22","271"
"469","Gibeath-haaraloth","Gilgal 1","","31.86","35.51","247"
"47","Allammelech","","","32.97","35.18","430"
"470","Gibeon","","","31.84","35.18","239"
"471","Gidom","Rimmon 1","","31.93","35.29","272"
"472","Gihon","","","0.0","0.0","1"
"473","Gihon","","","31.77","35.23","195"
"474","Gilboa","","","32.51","35.4","355"
"475","Gilead","","region","32.04","35.72","297"
"476","Gilgal","","","31.86","35.51","247"
"477","Gilgal","","","32.02","35.22","294"
"478","Gilo","Giloh","","31.61","35.08","141"
"479","Giloh","","","31.61","35.08","141"
"48","Allon-bacuth","Bethel 1","","31.93","35.22","271"
"480","Gimzo","","","31.92","34.94","270"
"481","Gittaim","Hadid","","31.96","34.95","282"
"482","Goah","Jerusalem","","31.77","35.23","198"
"483","Gob","Gezer","","31.87","34.92","256"
"484","Gog","","region","46.0","47.0","578"
"485","Goiim","","","0.0","0.0","1"
"486","Golan","","","32.8","35.93","408"
"487","Golgotha","Jerusalem","","31.77","35.23","198"
"488","Gomer","","","0.0","0.0","1"
"489","Gomorrah","","","31.15","35.47","73"
"49","Almon","Alemeth","","31.82","35.28","226"
"490","Goshen","","","30.72","31.8","51"
"491","Goshen","","; from harper","31.45","34.91","102"
"492","Gozan","","from harper","36.84","40.06","523"
"493","Sea","","sea","33.24","33.47","456"
"494","Sidon","Sidon","","33.56","35.36","470"
"495","Greece","Athens","region","37.98","23.73","544"
"496","Gudgodah","Hor-haggidgad","","30.35","35.19","43"
"497","Gur","Ibleam","","32.45","35.28","347"
"498","Gurbaal","Bozrah 1","","30.73","35.6","52"
"499","Habor","","river","36.34","40.78","515"
"5","Abel-beth-maacah","","","33.26","35.57","460"
"50","Almon-diblathaim","Dibon 1","","31.49","35.78","110"
"500","Hachilah","","; now Zahrat al Kula","31.46","35.21","107"
"501","Hadad-rimmon","","now Rommanah","32.52","35.2","357"
"502","Hadashah","","now Ibdis","31.67","34.69","156"
"503","Hadid","","","31.96","34.95","282"
"504","Hadrach","Damascus","","33.51","36.31","468"
"505","Haeleph","","now Lifta","31.79","35.19","207"
"506","Hahiroth","Pi-hahiroth","from tyndale","29.94","32.42","31"
"507","Hakkephirim","Ono","","32.02","34.86","290"
"508","Halah","Habor","","36.34","40.78","515"
"509","Halhul","","","31.57","35.09","129"
"51","Alush","Dophkah","","28.77","33.4","18"
"510","Hali","Beten","","32.93","35.27","426"
"511","Judgment","Jerusalem","","31.77","35.23","198"
"512","Pillars","Jerusalem","","31.77","35.23","198"
"513","Throne","Jerusalem","","31.77","35.23","198"
"514","Ham","Ammon","","31.95","35.92","277"
"515","Ham","On","","30.1","31.33","35"
"516","Hamath","","","35.13","36.74","500"
"517","Hamath-zobah","Hamath","","35.13","36.74","500"
"518","Hammath","","","33.12","35.16","447"
"519","Hammon","Hammath","","33.12","35.16","447"
"52","Amad","","","33.01","35.17","435"
"520","Hammoth-dor","Hammath","","33.12","35.16","447"
"521","Hamonah","Dibon 1","","31.49","35.78","110"
"522","Hanes","","http://www.digitalegypt.ucl.ac.uk/ehnasya/index.html","29.08","30.93","23"
"523","Hannathon","","","32.91","35.42","424"
"524","Hapharaim","Ophrah 2","","32.6","35.28","370"
"525","Hara","Habor","","36.34","40.78","515"
"526","Haradah","Mount Hor 1","","30.31","35.4","40"
"527","Haran","","","36.86","39.03","524"
"528","Harmon","Samaria","","32.28","35.19","332"
"529","Harod","","now Ein Harod","32.54","35.35","360"
"53","Amalek","","region","30.65","34.83","48"
"530","Harosheth-hagoyim","","","32.69","35.11","383"
"531","Hashmonah","Mount Hor 1","","30.31","35.4","40"
"532","Hauran","Golan","region","32.8","35.93","408"
"533","Havilah","","","0.0","0.0","1"
"534","Havilah","","","30.14","35.22","36"
"535","Havvoth-jair","Gilead","","32.04","35.72","297"
"536","Hazar-addar","Addar","","30.95","34.71","60"
"537","Hazar-enan","","now Al Qaryatayn","34.22","37.24","482"
"538","Hazar-gaddah","Moladah","","31.16","35.05","74"
"539","Hazar-shual","","","31.21","34.94","78"
"54","Amam","Moladah","","31.16","35.05","74"
"540","Hazar-susah","Madmannah","","31.39","34.94","90"
"541","Hazar-susim","Madmannah","","31.39","34.94","90"
"542","Hazazon-tamar","Engedi","","31.46","35.39","106"
"543","Hazer-hatticon","Hamath","","35.13","36.74","500"
"544","Hazeroth","","","28.91","34.5","21"
"545","Hazor","","","33.01","35.56","434"
"546","Hazor","Kadesh-barnea","","30.68","34.49","49"
"547","Hazor","Moladah","","31.16","35.05","74"
"548","Hazor","","","31.83","35.2","229"
"549","Hazor","","","0.0","0.0","1"
"55","Amana","","","33.68","36.05","475"
"550","Hazor-hadattah","Moladah","","31.16","35.05","74"
"551","Hebron","","","31.53","35.09","120"
"552","Helam","Peniel","","32.18","35.7","319"
"553","Helbah","Aphek 1","","34.06","35.86","480"
"554","Helbon","","now Halbon","33.66","36.24","474"
"555","Helech","Arvad","","34.85","35.85","494"
"556","Heleph","","","33.13","35.33","448"
"557","Heliopolis","On","","30.1","31.33","35"
"558","Helkath","","","32.95","35.21","429"
"559","Helkath-hazzurim","","","31.88","35.28","258"
"56","Amaw","Pethor","","36.65","38.06","518"
"560","Hena","","","34.46","41.96","486"
"561","Hepher","","","32.36","34.88","339"
"562","Heres","Succoth 1","","32.19","35.63","323"
"563","Hereth","","","31.62","35.02","144"
"564","Hermon","Mount Hermon","","33.41","35.85","465"
"565","Heshbon","","","31.8","35.8","210"
"566","Heshmon","Hazar-shual","","31.21","34.94","78"
"567","Hethlon","","","34.73","36.34","489"
"568","Hezron","Hazor 1","","33.01","35.56","434"
"569","Hierapolis","","","37.92","29.12","542"
"57","Ammah","","","31.86","35.34","249"
"570","Hilen","Holon 1","","31.58","34.95","130"
"571","Hobah","","","33.5","36.46","467"
"572","Holon","","","31.58","34.95","130"
"573","Holon","Jahaz","","31.5","35.92","113"
"574","Place","","mobile","0.0","0.0","1"
"575","Place","Jerusalem","","31.77","35.23","198"
"576","Horeb","Mount Sinai","","28.53","33.97","16"
"577","Horem","","","33.16","35.43","452"
"578","Horesh","","","31.45","35.08","105"
"579","Hor-haggidgad","","","30.35","35.19","43"
"58","Ammon","","","31.95","35.92","277"
"580","Hormah","Zephath","","30.88","34.63","55"
"581","Horonaim","","","31.28","35.51","84"
"582","Gate","Jerusalem","","31.77","35.23","198"
"583","Hosah","","","32.17","35.22","316"
"584","Forest","Jerusalem","","31.77","35.23","198"
"585","Lebanon","Jerusalem","","31.77","35.23","198"
"586","Hukkok","","","32.88","35.49","419"
"587","Hukok","Helkath","","32.95","35.21","429"
"588","Humtah","Hebron","","31.53","35.09","120"
"589","Ibleam","","","32.45","35.28","347"
"59","Amphipolis","","","40.82","23.83","567"
"590","Iconium","","","37.88","32.49","539"
"591","Idalah","","","32.73","35.16","395"
"592","Idumea","Bozrah 1","","30.73","35.6","52"
"593","Iim","Baalath-beer","","32.04","35.73","298"
"594","Ijon","","","33.32","35.61","463"
"595","Illyricum","Dalmatia","region","43.51","16.07","577"
"596","Immer","Nineveh","","36.35","43.15","516"
"597","India","","","22.0","77.0","7"
"598","Iphtah","Ashnah","","31.8","34.93","213"
"599","Irpeel","","","31.86","35.19","250"
"6","Abel-keramim","","","32.02","35.82","291"
"60","Anab","","","31.4","34.94","93"
"600","Ir-shemesh","Beth-shemesh 1","","31.75","34.97","181"
"601","Italy","Rome","region","41.9","12.48","575"
"602","Ithlah","","Now Bayt Thul","31.82","35.07","222"
"603","Ithnan","Moladah","","31.16","35.05","74"
"604","Ituraea","Mount Hermon","region","33.41","35.85","465"
"605","Ivvah","Hena","","34.46","41.96","486"
"606","Iye-abarim","Dibon 1","","31.49","35.78","110"
"607","Iyim","Dibon 1","","31.49","35.78","110"
"608","Jaar","Kiriath-jearim","","31.77","34.99","192"
"609","Jabbok","","","32.19","35.67","321"
"61","Anaharath","","","32.6","35.39","369"
"610","Jabesh","Jabesh-gilead","","32.37","35.61","341"
"611","Jabesh-gilead","","","32.37","35.61","341"
"612","Jabez","Bethlehem 1","","31.7","35.21","167"
"613","Jabneel","","now Yavneh","31.86","34.74","248"
"614","Jabneel","","now Yavneel","32.7","35.5","387"
"615","Jabneh","Jabneel 1","","31.86","34.74","248"
"616","Jagur","Adadah","","31.18","34.96","76"
"617","Jahaz","","","31.5","35.92","113"
"618","Jahzah","Jahaz","","31.5","35.92","113"
"619","Jair","Gilead","region","32.04","35.72","297"
"62","Ananiah","","","31.83","35.21","228"
"620","Janim","","now Bani Naim","31.51","35.16","115"
"621","Janoah","","now Yanouh","33.26","35.3","459"
"622","Janoah","","","32.15","35.36","314"
"623","Japhia","","now Yafa","32.69","35.27","384"
"624","Jarmuth","","","31.7","34.96","168"
"625","Jarmuth","Jezreel 2","","32.55","35.33","362"
"626","Jattir","","","31.4","35.06","92"
"627","Javan","Ephesus","from harper; http://en.wikipedia.org/wiki/Ionia","37.95","27.36","543"
"628","Jazer","","","31.94","35.72","275"
"629","Jebus","Jerusalem","","31.77","35.23","198"
"63","Anathoth","","","31.81","35.26","214"
"630","Jebusite","Jerusalem","","31.77","35.23","198"
"631","Jegar-sahadutha","Ramoth-gilead","","32.56","36.0","366"
"632","Jehud","","now Yehud","32.03","34.88","295"
"633","Jekabzeel","Adadah","","31.18","34.96","76"
"634","Jericho","","","31.87","35.44","254"
"635","Jeruel","Ziz","","31.57","35.4","128"
"636","Jerusalem","","","31.77","35.23","198"
"637","Jerusalem's","Jerusalem","","31.77","35.23","198"
"638","Jeshanah","","now Ein Sinya","31.98","35.22","287"
"639","Jeshimon","Engedi","","31.46","35.39","106"
"64","Anem","En-gannim 2","","32.46","35.3","348"
"640","Jeshua","Moladah","","31.16","35.05","74"
"641","Jetur","Mount Hermon","","33.41","35.85","465"
"642","Jezreel","Hebron","","31.53","35.09","120"
"643","Jezreel","","","32.55","35.33","362"
"644","Jezreel","Jezreel 2","","32.55","35.33","362"
"645","Jogbehah","","","32.02","35.86","292"
"646","Jokdeam","Zanoah 2","","31.36","35.0","85"
"647","Jokmeam","Jokneam","","32.66","35.1","379"
"648","Jokmeam","Kibzaim","","31.83","35.3","230"
"649","Jokneam","","","32.66","35.1","379"
"65","Aner","Taanach","","32.51","35.21","356"
"650","Joktheel","Lachish","","31.56","34.84","126"
"651","Joktheel","Sela","","30.32","35.45","41"
"652","Joppa","","","32.05","34.75","299"
"653","Jordan","Jordan Valley","river","32.3","35.55","334"
"654","Jordan Valley","","","32.3","35.55","334"
"655","Jotbah","Ezion-geber","","29.75","35.03","28"
"656","Jotbathah","Ezion-geber","","29.75","35.03","28"
"657","Judea","Jerusalem","region","31.77","35.23","198"
"658","Judean","Jerusalem","","31.77","35.23","198"
"659","Juttah","","; now Yatta","31.45","35.08","103"
"66","Angle","Jerusalem","","31.77","35.23","198"
"660","Kabzeel","Adadah","","31.18","34.96","76"
"661","Kadesh","Kadesh-barnea","","30.68","34.49","49"
"662","Kadesh","","","34.55","36.52","488"
"663","Kadesh-barnea","","","30.68","34.49","49"
"664","Kain","","now Yaqin","31.5","35.16","112"
"665","Kamon","Gilead","","32.04","35.72","297"
"666","Kanah","","","32.13","35.03","310"
"667","Kanah","Cana","","32.74","35.33","399"
"668","Karka","Azmon","","30.95","34.38","61"
"669","Karkor","Peniel","","32.18","35.7","319"
"67","Anim","","","31.37","35.07","87"
"670","Karnaim","Ashteroth-karnaim","","32.76","36.01","403"
"671","Kartah","Kitron","","32.75","35.27","400"
"672","Kartan","Hammath","","33.12","35.16","447"
"673","Kattath","Kitron","","32.75","35.27","400"
"674","Kedar","Arabia","","27.4","37.7","12"
"675","Kedemoth","","; esv map","31.64","35.89","147"
"676","Kedesh","","","33.11","35.53","445"
"677","Kedesh","Kadesh-barnea","","30.68","34.49","49"
"678","Kedesh","Kishion","","32.55","35.24","363"
"679","Kedesh-naphtali","Kedesh 1","","33.11","35.53","445"
"68","Antioch","","","36.2","36.16","512"
"680","Kehelathah","Mount Hor 1","","30.31","35.4","40"
"681","Keilah","","now Khirbet Qila","31.61","35.0","139"
"682","Kenath","","","32.75","36.61","401"
"683","Kerioth","Kiriathaim 1","","31.58","35.7","131"
"684","Kerioth-hezron","Moladah","","31.16","35.05","74"
"685","Kibroth-hattaavah","Hazeroth","","28.91","34.5","21"
"686","Kibzaim","","; now Kabus","31.83","35.3","230"
"687","Kidron","","","31.77","35.23","194"
"688","Kidron Valley","Kidron","","31.77","35.23","194"
"689","Kinah","Adadah","","31.18","34.96","76"
"69","Antioch","","","38.31","31.17","546"
"690","Highway","Kir","","31.18","35.7","75"
"691","Pool","Jerusalem","","31.77","35.23","198"
"692","Valley","Jerusalem","","31.77","35.23","198"
"693","Kir","","","31.18","35.7","75"
"694","Kir-hareseth","Kir","","31.18","35.7","75"
"695","Kiriathaim","","","31.58","35.7","131"
"696","Kiriathaim","Hammath","","33.12","35.16","447"
"697","Kiriath-arba","Hebron","","31.53","35.09","120"
"698","Kiriath-arim","Kiriath-jearim","","31.77","34.99","192"
"699","Kiriath-baal","Kiriath-jearim","","31.77","34.99","192"
"7","Abel-maim","Abel-beth-maacah","","33.26","35.57","460"
"70","Antipatris","","","32.1","34.94","304"
"700","Kiriath-huzoth","Pisgah","","31.76","35.71","186"
"701","Kiriath-jearim","","","31.77","34.99","192"
"702","Kiriath-sannah","Debir 1","","31.41","34.96","96"
"703","Kiriath-sepher","Debir 1","","31.41","34.96","96"
"704","Kishion","","","32.55","35.24","363"
"705","Kishon","","river","32.76","35.06","402"
"706","Kitron","","","32.75","35.27","400"
"707","Kittim","Cyprus","","35.01","33.2","497"
"708","Koa","Ecbatana","http://www.answers.com/topic/mede","34.79","48.51","491"
"709","Kue","Tarsus","from tyndale","36.91","34.89","526"
"71","Aphek","","http://www.traveljournals.net/explore/lebanon/map/m1170262/hamul.html","34.06","35.86","480"
"710","Laban","Ashnah","","31.8","34.93","213"
"711","Lachish","","","31.56","34.84","126"
"712","Lahmam","","","31.56","34.9","127"
"713","Laish","Dan","","33.24","35.65","458"
"714","Laishah","","now Isawiya","31.8","35.25","209"
"715","Lakkum","Mount Tabor","","32.68","35.39","381"
"716","Laodicea","","","37.76","29.06","537"
"717","Lasea","","","34.93","24.8","496"
"718","Lasha","","http://www.christusrex.org/www1/ofm/mad/sections/section3.html","31.71","35.58","171"
"719","Lasharon","","now Sharona","32.72","35.46","393"
"72","Aphek","","","32.1","34.93","305"
"720","Lebanon","","region","33.75","35.59","476"
"721","Lebaoth","Madmannah","","31.39","34.94","90"
"722","Leb-kamai","Ur","","30.96","46.1","62"
"723","Lebo-hamath","Hamath","","35.13","36.74","500"
"724","Lebonah","","now al-Lubban","32.07","35.23","302"
"725","Lehem","Bethlehem 1","","31.7","35.21","167"
"726","Lehi","Beth-shemesh 1","","31.75","34.97","181"
"727","Leshem","Dan","","33.24","35.65","458"
"728","Libnah","Lachish","","31.56","34.84","126"
"729","Libnah","Ashnah","","31.8","34.93","213"
"73","Aphek","","","32.77","35.69","404"
"730","Libya","Cyrene","","32.82","21.85","411"
"731","Lod","","","31.95","34.89","278"
"732","Lo-debar","","","32.66","35.78","378"
"733","Beth-horon","","","31.87","35.12","257"
"734","Beth-horon","Lower Beth-horon","","31.87","35.12","257"
"735","Lud","Lod","","31.95","34.89","278"
"736","Luhith","Horonaim","","31.28","35.51","84"
"737","Luz","Bethel 1","","31.93","35.22","271"
"738","Luz","","","37.0","36.57","528"
"739","Lycaonia","Iconium","region","37.88","32.49","539"
"74","Aphekah","Aphek 2","","32.1","34.93","305"
"740","Lycia","Patara","region","36.27","29.31","514"
"741","Lydda","Lod","","31.95","34.89","278"
"742","Lystra","","","37.57","32.45","535"
"743","Maacah","Aram-maacah","","33.2","36.5","453"
"744","Maacath","Aram-maacah","","33.2","36.5","453"
"745","Maarath","","now Bayt Ummar","31.62","35.1","143"
"746","Maareh-geba","Gibeah 1","","31.82","35.23","223"
"747","Macedonia","Thessalonica","region","40.63","22.93","566"
"748","Machpelah","","","31.52","35.11","117"
"749","Madmannah","","","31.39","34.94","90"
"75","Aphik","Aphek 1","","34.06","35.86","480"
"750","Madmen","Dibon 1","","31.49","35.78","110"
"751","Madmenah","Gebim","","31.8","35.25","209"
"752","Madon","","","32.79","35.45","407"
"753","Magadan","","","32.84","35.52","415"
"754","Magog","Gog","","46.0","47.0","578"
"755","Mahalab","Ahlab","","33.02","35.44","436"
"756","Mahanaim","","","32.21","35.63","326"
"757","Mahaneh-dan","","","31.75","34.99","183"
"758","Makaz","Shaalbim","","31.87","34.98","253"
"759","Makheloth","Mount Hor 1","","30.31","35.4","40"
"76","Apollonia","","","40.58","23.35","564"
"760","Makkedah","","","31.93","34.78","273"
"761","Malta","","","35.85","14.53","507"
"762","Mamre","","","31.54","35.09","122"
"763","Manahath","","now Malha","31.75","35.18","180"
"764","Maon","","","31.41","35.11","94"
"765","Marah","","","29.35","32.93","26"
"766","Mareal","","now Malul","32.69","35.24","386"
"767","Mareshah","","","31.6","34.9","136"
"768","Maroth","Shaphir","","31.74","34.69","175"
"769","Mashal","Abdon","","33.04","35.17","437"
"77","Ar","","","31.44","35.59","101"
"770","Masrekah","Bozrah 1","","30.73","35.6","52"
"771","Massah","Rephidim","","28.73","33.84","17"
"772","Mattanah","Lasha","","31.71","35.58","171"
"773","Mearah","","","33.63","35.43","473"
"774","Meconah","Ain 2","","31.37","34.86","86"
"775","Medeba","","","31.72","35.79","172"
"776","Media","Ecbatana","","34.79","48.51","491"
"777","Megiddo","","","32.58","35.18","367"
"778","Me-jarkon","Rakkon","","32.13","34.78","309"
"779","Memphis","","http://en.wikipedia.org/wiki/Memphis%2C_Egypt","29.84","31.25","29"
"78","Arab","","","31.45","35.04","104"
"780","Mephaath","","","31.85","35.93","240"
"781","Merathaim","Babel","","32.53","44.42","358"
"782","Meribah","Kadesh-barnea","","30.68","34.49","49"
"783","Meribah","Rephidim","","28.73","33.84","17"
"784","Meribah-kadesh","Kadesh-barnea","","30.68","34.49","49"
"785","Merom","","lake","33.07","35.6","439"
"786","Meroz","Mount Tabor","","32.68","35.39","381"
"787","Mesha","","","28.85","34.85","20"
"788","Meshech","Gog","","46.0","47.0","578"
"789","Meshech-Tubal","Gog","","46.0","47.0","578"
"79","Arabah","","","32.02","35.52","293"
"790","Mesopotamia","Babel","region","32.53","44.42","358"
"791","Metheg-ammah","Gath","","31.69","34.84","162"
"792","Michmas","Michmash","","31.87","35.27","252"
"793","Michmash","","","31.87","35.27","252"
"794","Michmethath","","","32.18","35.28","318"
"795","Middin","","","31.74","35.4","176"
"796","Midian","","region","28.93","34.9","22"
"797","Migdal-el","","","33.23","35.36","455"
"798","Migdal-gad","","","31.66","34.58","153"
"799","Migdol","","","30.02","32.37","32"
"8","Abel-meholah","","","32.35","35.53","337"
"80","Arabia","","region","27.4","37.7","12"
"800","Migron","Gibeah 1","","31.82","35.23","223"
"801","Miletus","","","37.5","27.3","534"
"802","Millo","Jerusalem","","31.77","35.23","198"
"803","Minni","Ashkenaz","","40.6","44.6","565"
"804","Minnith","","","31.75","35.85","179"
"805","Mishal","Abdon","","33.04","35.17","437"
"806","Misrephoth-maim","","now Narouq","33.11","35.13","446"
"807","Mithkah","Mount Hor 1","","30.31","35.4","40"
"808","Mitylene","","","39.1","26.55","553"
"809","Mizpah","Ramoth-gilead","","32.56","36.0","366"
"81","Arad","","","31.28","35.12","82"
"810","Mizpah","Valley of Mizpeh","","33.28","35.57","462"
"811","Mizpah","","","31.83","35.18","227"
"812","Mizpeh","Mizpah 3","","31.83","35.18","227"
"813","Mizpeh","Lachish","","31.56","34.84","126"
"814","Mizpeh","Kir","","31.18","35.7","75"
"815","Moab","Dibon 1","","31.49","35.78","110"
"816","Moladah","","","31.16","35.05","74"
"817","Moreh","Shechem","","32.21","35.28","325"
"818","Moreh","","","32.61","35.35","373"
"819","Moresheth","Mareshah","","31.6","34.9","136"
"82","Aram","","","34.85","39.12","493"
"820","Moresheth-gath","Mareshah","","31.6","34.9","136"
"821","Moriah","Mount Moriah","","31.77","35.23","199"
"822","Mortar","Jerusalem","","31.77","35.23","198"
"823","Moserah","Mount Hor 1","","30.31","35.4","40"
"824","Moseroth","Mount Hor 1","","30.31","35.4","40"
"825","Holy","","mobile","0.0","0.0","1"
"826","Place","","mobile","0.0","0.0","1"
"827","Place","Jerusalem","","31.77","35.23","198"
"828","Mount","Mount of Olives","","31.77","35.24","201"
"829","Baal-hermon","Mount Hermon","","33.41","35.85","465"
"83","Aram-maacah","","","33.2","36.5","453"
"830","Baalah","Jabneel 1","","31.86","34.74","248"
"831","Carmel","","","32.72","35.04","394"
"832","Ebal","","","32.23","35.27","327"
"833","Ephraim","Mount Ebal","","32.23","35.27","327"
"834","Ephron","","","31.67","35.04","154"
"835","Esau","Bozrah 1","","30.73","35.6","52"
"836","Gerizim","","","32.19","35.27","322"
"837","Gilboa","","","32.5","35.4","353"
"838","Gilead","Mount Gilboa","","32.5","35.4","353"
"839","Halak","","; http://www.bibleorigins.net/MountHalakGebelHalaqMap.html","30.91","34.83","57"
"84","Aram-naharaim","","","35.1","42.0","499"
"840","Heres","Beth-shemesh 1","","31.75","34.97","181"
"841","Hermon","","","33.41","35.85","465"
"842","Hor","","","30.31","35.4","40"
"843","Hor","","","35.71","36.18","505"
"844","Horeb","Mount Sinai","","28.53","33.97","16"
"845","Jearim","Chesalon","","31.78","35.05","202"
"846","Lebanon","Lebanon","","33.75","35.59","476"
"847","Mizar","Mount Hermon","","33.41","35.85","465"
"848","Moriah","","","31.77","35.23","199"
"849","Nebo","","","31.76","35.74","184"
"85","Aram-zobah","Damascus","","33.51","36.31","468"
"850","Paran","Paran","","29.15","33.54","24"
"851","Perazim","Valley of Rephaim","","31.75","35.22","182"
"852","Seir","Bozrah 1","mountain range","30.73","35.6","52"
"853","Seir","","","31.78","34.99","204"
"854","Shepher","Mount Hor 1","","30.31","35.4","40"
"855","Sinai","","","28.53","33.97","16"
"856","Sirion","Mount Hermon","","33.41","35.85","465"
"857","Tabor","","","32.68","35.39","381"
"858","Zalmon","Mount Ebal","","32.23","35.27","327"
"859","Zemaraim","Zemaraim","","31.91","35.45","267"
"86","Ararat","","","39.7","44.29","559"
"860","Zion","Jerusalem","","31.77","35.23","198"
"861","Olives","","","31.77","35.24","201"
"862","Mozah","","","31.8","35.15","211"
"863","Gate","Jerusalem","","31.77","35.23","198"
"864","Myra","","","36.23","30.01","513"
"865","Mysia","Troas","","39.5","26.08","557"
"866","Naamah","","","31.87","34.87","255"
"867","Naarah","Naaran","","31.94","35.45","276"
"868","Naaran","","","31.94","35.45","276"
"869","Nahalal","Nahalol","","32.72","35.35","391"
"87","Areopagus","Athens","","37.98","23.73","544"
"870","Nahaliel","Lasha","","31.71","35.58","171"
"871","Nahalol","","","32.72","35.35","391"
"872","Nain","","","32.63","35.34","376"
"873","Naioth","Mizpah 3","","31.83","35.18","227"
"874","Naphath","Megiddo","","32.58","35.18","367"
"875","Naphath-dor","Dor","","32.61","34.91","372"
"876","Naphish","Golan","","32.8","35.93","408"
"877","Naphoth-dor","Dor","","32.61","34.91","372"
"878","Nazareth","","","32.7","35.3","389"
"879","Neah","Neiel","","32.89","35.22","420"
"88","Argob","","","33.14","36.13","449"
"880","Neapolis","","","40.94","24.41","571"
"881","Nebaioth","Sela","(Nabateans  Petra)","30.32","35.45","41"
"882","Neballat","","now Bayt Nabala","31.99","34.95","288"
"883","Nebo","","from harper; now El Mekhaiyat","31.74","35.74","177"
"884","Nebo","","","31.6","35.03","137"
"885","Negeb","","","30.3","34.2","39"
"886","Nehelam","","","0.0","0.0","1"
"887","Neiel","","; now Yenin","32.89","35.22","420"
"888","Nephtoah","","","31.68","35.16","158"
"889","Netaim","Gederah","","31.82","34.77","221"
"89","Ariel","Jerusalem","","31.77","35.23","198"
"890","Netophah","","","31.73","35.22","173"
"891","Gate","Jerusalem","","31.77","35.23","198"
"892","Nezib","","","31.58","34.99","132"
"893","Nibshan","Engedi","","31.46","35.39","106"
"894","Nicopolis","","","39.02","20.73","552"
"895","Nile","","","30.09","31.23","34"
"896","Nimrah","Beth-nimrah","","31.9","35.62","265"
"897","Nimrim","","from harper; now Numeira","31.13","35.53","71"
"898","Nimrod","Babel","figurative","32.53","44.42","358"
"899","Nineveh","","Nineveh in KML","36.35","43.15","516"
"9","Abel-mizraim","","","0.0","0.0","1"
"90","Arimathea","Mizpah 3","","31.83","35.18","227"
"900","Nob","","","31.79","35.23","208"
"901","Nobah","Kenath","","32.75","36.61","401"
"902","Nod","","","0.0","0.0","1"
"903","Nodab","Golan","","32.8","35.93","408"
"904","Nohah","Manahath","","31.75","35.18","180"
"905","Nophah","Kenath","","32.75","36.61","401"
"906","Oboth","Dibon 1","","31.49","35.78","110"
"907","Olivet","Mount of Olives","","31.77","35.24","201"
"908","On","","","30.1","31.33","35"
"909","Ono","","","32.02","34.86","290"
"91","Armageddon","Megiddo","","32.58","35.18","367"
"910","Ophel","Jerusalem","","31.77","35.23","198"
"911","Ophir","India","","22.0","77.0","7"
"912","Ophni","","","31.96","35.21","281"
"913","Ophrah","","","31.95","35.29","279"
"914","Ophrah","","","32.6","35.28","370"
"915","Paddan","Haran","","36.86","39.03","524"
"916","Paddan-aram","Haran","","36.86","39.03","524"
"917","Pai","Bozrah 1","","30.73","35.6","52"
"918","Pamphylia","Perga","","37.0","30.9","529"
"919","Paphos","","","34.75","32.4","490"
"92","Arnon","","Now Wadi Mojib","31.42","35.67","98"
"920","Parah","","","31.83","35.3","230"
"921","Paran","","","29.15","33.54","24"
"922","Parvaim","","","0.0","0.0","1"
"923","Pas-dammim","Ephes-dammim","","31.69","34.94","161"
"924","Patara","","","36.27","29.31","514"
"925","Pathros","","region","28.32","30.69","14"
"926","Patmos","","","37.3","26.54","532"
"927","Pau","Bozrah 1","","30.73","35.6","52"
"928","Pekod","Babel","","32.53","44.42","358"
"929","Pelusium","Sin","","28.83","33.42","19"
"93","Aroer","","","31.47","35.82","108"
"930","Peniel","","","32.18","35.7","319"
"931","Penuel","Peniel","","32.18","35.7","319"
"932","Gate","Jerusalem","","31.77","35.23","198"
"933","Peor","Pisgah","","31.76","35.71","186"
"934","Perez-uzza","Jerusalem","","31.77","35.23","198"
"935","Perez-uzzah","Jerusalem","","31.77","35.23","198"
"936","Perga","","","37.0","30.9","529"
"937","Pergamum","","","39.11","27.16","554"
"938","Persia","Ecbatana","","34.79","48.51","491"
"939","Pethor","","http://www.aushariye.hum.ku.dk/images/large/fig-01.htm","36.65","38.06","518"
"94","Aroer","","Guess (near Rabbah)","31.96","35.91","280"
"940","Pharpar","","river","33.37","36.3","464"
"941","Philadelphia","","","38.34","28.51","547"
"942","Philippi","","","41.01","24.28","572"
"943","Philistia","Sidon","","33.56","35.36","470"
"944","Phoenicia","Sidon","","33.56","35.36","470"
"945","Phoenix","","","35.19","24.08","503"
"946","Phrygia","Laodicea","","37.76","29.06","537"
"947","Pi-beseth","","","30.58","31.5","45"
"948","Pi-hahiroth","","","29.94","32.42","31"
"949","Pirathon","","now Faroun","32.28","35.02","333"
"95","Aroer","","","31.14","34.98","72"
"950","Pisgah","","","31.76","35.71","186"
"951","Pishon","","","0.0","0.0","1"
"952","Pisidia","Antioch 2","","38.31","31.17","546"
"953","Pithom","","","30.59","32.18","46"
"954","Place","Jerusalem","","31.77","35.23","198"
"955","Plain","Jericho","","31.87","35.44","254"
"956","Pontus","","region","40.9","37.79","569"
"957","Pool","Jerusalem","","31.77","35.23","198"
"958","Gate","Jerusalem","","31.77","35.23","198"
"959","Ptolemais","Acco","","32.92","35.08","425"
"96","Arpad","Hamath","","35.13","36.74","500"
"960","Pul","Cyrene","","32.82","21.85","411"
"961","Punon","Dibon 1","","31.49","35.78","110"
"962","Put","Cyrene","","32.82","21.85","411"
"963","Puteoli","","","40.83","14.26","568"
"964","Raamah","","","15.68","42.78","5"
"965","Raamses","Pithom","","30.59","32.18","46"
"966","Rabbah","Ammon","","31.95","35.92","277"
"967","Rabbith","","","32.39","35.37","342"
"968","Racal","Carmel","","31.43","35.13","99"
"969","Rahab","On","","30.1","31.33","35"
"97","Arubboth","Socoh 1","","31.68","34.97","157"
"970","Rakkath","Tiberias","","32.79","35.52","406"
"971","Rakkon","","","32.13","34.78","309"
"972","Ramah","","","31.89","35.2","262"
"973","Ramah","","","33.11","35.31","444"
"974","Ramah","","","32.93","35.36","427"
"975","Ramah","Mizpah 3","","31.83","35.18","227"
"976","Ramah","Ramoth-gilead","","32.56","36.0","366"
"977","Ramathaim-zophim","Mizpah 3","","31.83","35.18","227"
"978","Ramath-lehi","Beth-shemesh 1","","31.75","34.97","181"
"979","Ramath-mizpeh","Ramoth-gilead","","32.56","36.0","366"
"98","Arumah","","","32.15","35.31","313"
"980","Rameses","","","30.79","31.83","53"
"981","Ramoth","Jezreel 2","","32.55","35.33","362"
"982","Ramoth","Baalath-beer","","32.04","35.73","298"
"983","Ramoth","Ramoth-gilead","","32.56","36.0","366"
"984","Ramoth-gilead","","","32.56","36.0","366"
"985","Recah","Bethlehem 1","","31.7","35.21","167"
"986","Red Sea","","water","27.08","34.77","11"
"987","Rehob","Beth-rehob","","33.21","35.54","454"
"988","Rehob","Hammath","","33.12","35.16","447"
"989","Rehob","Helkath","","32.95","35.21","429"
"99","Arvad","","","34.85","35.85","494"
"990","Rehoboth","","","31.06","34.59","67"
"991","Rehoboth","Zered","","30.88","35.89","56"
"992","Rehoboth-Ir","Nineveh","","36.35","43.15","516"
"993","Rekem","Irpeel","","31.86","35.19","250"
"994","Remeth","Jezreel 2","","32.55","35.33","362"
"995","Rephaim","Golan","","32.8","35.93","408"
"996","Rephidim","","","28.73","33.84","17"
"997","Resen","Nineveh","","36.35","43.15","516"
"998","Rezeph","","; from http://en.wikipedia.org/wiki/Resafa","35.95","39.01","508"
"999","Rhegium","","","38.11","15.64","545"
